,Unnamed: 0,Unnamed: 0.1,Unnamed: 0.1.1,Unnamed: 0.1.1.1,Unnamed: 0.1.1.1.1,Unnamed: 0.1.1.1.1.1,Unnamed: 0.1.1.1.1.1.1,Unnamed: 0.1.1.1.1.1.1.1,Unnamed: 0.1.1.1.1.1.1.1.1,Unnamed: 0.1.1.1.1.1.1.1.1.1,Unnamed: 0.1.1.1.1.1.1.1.1.1.1,Unnamed: 0.1.1.1.1.1.1.1.1.1.1.1,Unnamed: 0.1.1.1.1.1.1.1.1.1.1.1.1,Unnamed: 0.1.1.1.1.1.1.1.1.1.1.1.1.1,Unnamed: 0.1.1.1.1.1.1.1.1.1.1.1.1.1.1,Unnamed: 0.1.1.1.1.1.1.1.1.1.1.1.1.1.1.1,Unnamed: 0.1.1.1.1.1.1.1.1.1.1.1.1.1.1.1.1,Unnamed: 0.1.1.1.1.1.1.1.1.1.1.1.1.1.1.1.1.1,Unnamed: 0.1.1.1.1.1.1.1.1.1.1.1.1.1.1.1.1.1.1,Unnamed: 0.1.1.1.1.1.1.1.1.1.1.1.1.1.1.1.1.1.1.1,Unnamed: 0.1.1.1.1.1.1.1.1.1.1.1.1.1.1.1.1.1.1.1.1,Unnamed: 0.1.1.1.1.1.1.1.1.1.1.1.1.1.1.1.1.1.1.1.1.1,Unnamed: 0.1.1.1.1.1.1.1.1.1.1.1.1.1.1.1.1.1.1.1.1.1.1,Unnamed: 0.1.1.1.1.1.1.1.1.1.1.1.1.1.1.1.1.1.1.1.1.1.1.1,Unnamed: 0.1.1.1.1.1.1.1.1.1.1.1.1.1.1.1.1.1.1.1.1.1.1.1.1,Unnamed: 0.1.1.1.1.1.1.1.1.1.1.1.1.1.1.1.1.1.1.1.1.1.1.1.1.1,Unnamed: 0.1.1.1.1.1.1.1.1.1.1.1.1.1.1.1.1.1.1.1.1.1.1.1.1.1.1,Unnamed: 0.1.1.1.1.1.1.1.1.1.1.1.1.1.1.1.1.1.1.1.1.1.1.1.1.1.1.1,Unnamed: 0.1.1.1.1.1.1.1.1.1.1.1.1.1.1.1.1.1.1.1.1.1.1.1.1.1.1.1.1,Unnamed: 0.1.1.1.1.1.1.1.1.1.1.1.1.1.1.1.1.1.1.1.1.1.1.1.1.1.1.1.1.1,PANTRY_NAME,name,ADDRESS,LATITUDE,LONGITUDE,URL,school_zones
0,0,0,0,0,0,0,0,0,0,0,0,0,0,0,0,0,0,0,0,0,0,0,0,0,0,0,0,0,0,0,Believers For Progress,Believers For Progress,1306 Fayetteville St.,35.98089193,-78.89967071,http://www.believersunitedforprogress.org,"All,Brogden Middle,C.C. Spaulding Elementary,Jordan High,Lakewood Middle"
1,1,1,1,1,1,1,1,1,1,1,1,1,1,1,1,1,1,1,1,1,1,1,1,1,1,1,1,1,1,1,Bell Yeager Free Will Baptist,Bell Yeager Free Will Baptist,128 E. Cornwallis Rd.,35.96373448,-78.91773048,https://www.bellyeagerfwb.org,"All,Brogden Middle,C.C. Spaulding Elementary,Hillside High,Lakewood Middle"
2,2,2,2,2,2,2,2,2,2,2,2,2,2,2,2,2,2,2,2,2,2,2,2,2,2,2,2,2,2,2,CAARE,CAARE,214 Broadway St.,36.00122242,-78.89875859,https://www.caare-inc.org,"All,Brogden Middle,Lakewood Middle,Riverside High"
3,3,3,3,3,3,3,3,3,3,3,3,3,3,3,3,3,3,3,3,3,3,3,3,3,3,3,3,3,3,3,Calvary Baptist Church,Calvary Baptist Church,1204 Lynn Rd.,35.9699559,-78.84966964,https://www.firstcalvary.org,"All,Hillside High,Lakewood Middle,Lowes Grove Middle"
4,4,4,4,4,4,4,4,4,4,4,4,4,4,4,4,4,4,4,4,4,4,4,4,4,4,4,4,4,4,4,Calvary UMC,Calvary UMC,304 E. Trinity Ave.,36.00502442,-78.89141372,https://calvarymethodist.org,"All,Eastway Elementary,Lakewood Middle"
5,5,5,5,5,5,5,5,5,5,5,5,5,5,5,5,5,5,5,5,5,5,5,5,5,5,5,5,5,5,5,Durham Community Food Pantry,Durham Community Food Pantry,"2020 Chapel Hill St., Suite 30",35.98948786,-78.92789227,https://www.catholiccharitiesraleigh.org/dcfp/,"All,Brogden Middle,Jordan High,Lakewood Elementary,Lakewood Middle"
6,6,6,6,6,6,6,6,6,6,6,6,6,6,6,6,6,6,6,6,6,6,6,6,6,6,6,6,6,6,6,Divine Grace Fellowship and Outreach Ministry,Divine Grace Fellowship and Outreach Ministry,"1500 E Club Blvd, Bldg 100",36.02752829,-78.86899656,https://www.churchfinder.com/churches/nc/durham/divine-grace-fellowship-outreach-ministry,"All,Lakewood Middle"
7,7,7,7,7,7,7,7,7,7,7,7,7,7,7,7,7,7,7,7,7,7,7,7,7,7,7,7,7,7,7,"West End Mobile Market at Duke United Methodist, Collaborative Community Pantry (IFFS)","West End Mobile Market at Duke United Methodist, Collaborative Community Pantry (IFFS)",504 W. Chapel Hill St.,35.99739748,-78.90956367,,"All,Brogden Middle,C.C. Spaulding Elementary,Jordan High,Lakewood Middle"
8,8,8,8,8,8,8,8,8,8,8,8,8,8,8,8,8,8,8,8,8,8,8,8,8,8,8,8,8,8,8,Iglesia Buen Pastor (IFFS),Iglesia Buen Pastor (IFFS),1852 Liberty St.,35.98996408,-78.86858735,https://durham.nc.networkofcare.org/mh/services/agency.aspx?pid=elbuenpastorepiscopalchurch_371_2_0,"All,Lakewood Middle"
9,9,9,9,9,9,9,9,9,9,9,9,9,9,9,9,9,9,9,9,9,9,9,9,9,9,9,9,9,9,9,Jesus Word Church - City of Jesus,Jesus Word Church - City of Jesus,1321 Humphrey St.,35.98222601,-78.88759237,https://www.discoverdurham.com/directory/jesus-word-church/,"All,Lakewood Middle"
10,10,10,10,10,10,10,10,10,10,10,10,10,10,10,10,10,10,10,10,10,10,10,10,10,10,10,10,10,10,10,Russell Memorial CME Church,Russell Memorial CME Church,703 S. Alston Ave.,35.97985042,-78.8909195,http://russellmemorialcme.com,"All,Hillside High,Lakewood Middle,Lowes Grove Middle"
11,11,11,11,11,11,11,11,11,11,11,11,11,11,11,11,11,11,11,11,11,11,11,11,11,11,11,11,11,11,11,Immanuel Temple Seventh Day Adventist Church,Immanuel Temple Seventh Day Adventist Church,2104 S. Alston Ave,35.96163211,-78.88739148,https://www.immanueltemplechurch.com,"All,Hillside High,Lakewood Middle,Lowes Grove Middle"
12,12,12,12,12,12,12,12,12,12,12,12,12,12,12,12,12,12,12,12,12,12,12,12,12,12,12,12,12,12,12,Grace Church of Durham,Grace Church of Durham,1417 Cole Mill Rd.,36.03250884,-78.9540037,https://gracecod.org,"All,Brogden Middle,Hillandale Elementary,Lakewood Middle,Riverside High"
13,13,13,13,13,13,13,13,13,13,13,13,13,13,13,13,13,13,13,13,13,13,13,13,13,13,13,13,13,13,13,Greystone Baptist (Second Mile Ministries),Greystone Baptist (Second Mile Ministries),2601 Hillsborough Rd.,36.010251,-78.929361,https://www.greystonechurch.com/2nd-mile,"All,Brogden Middle,E.K. Powe Elementary,Lakewood Middle,Riverside High"
14,14,14,14,14,14,14,14,14,14,14,14,14,14,14,14,14,14,14,14,14,14,14,14,14,14,14,14,14,14,14,Grace Outreach Enrichment Ministry,Grace Outreach Enrichment Ministry,612 Gary St.,35.99093953,-78.87011065,https://www.findhelp.org/grace-outreach-enrichment-ministry--durham-nc--food-and-clothing-program/5730651112734720?postal=27703,"All,Lakewood Middle"
15,15,15,15,15,15,15,15,15,15,15,15,15,15,15,15,15,15,15,15,15,15,15,15,15,15,15,15,15,15,15,Jewish for Good,Jewish for Good,1937 Cornwallis Rd.,35.97932811,-78.95565876,https://www.jewishforgood.org,"All,Brogden Middle,Forest View Elementary,Jordan High,Lakewood Middle"
16,16,16,16,16,16,16,16,16,16,16,16,16,16,16,16,16,16,16,16,16,16,16,16,16,16,16,16,16,16,16,Salvation Army,Salvation Army,909 Liberty St.,35.993151,-78.885396,https://www.salvationarmyusa.org/usn/,"All,Brogden Middle,Eastway Elementary,Lakewood Middle"
17,17,17,17,17,17,17,17,17,17,17,17,17,17,17,17,17,17,17,17,17,17,17,17,17,17,17,17,17,17,17,Jonathan's Outreach Network,Jonathan's Outreach Network,302 S. Driver St.,35.9828989,-78.87768755,https://ncindex.com/biz/1201816/jons-jonathan-s-outreach-network-services-inc,"All,Lakewood Middle"
18,18,18,18,18,18,18,18,18,18,18,18,18,18,18,18,18,18,18,18,18,18,18,18,18,18,18,18,18,18,18,Greater Refuge Temple,Greater Refuge Temple,1438 Maplewood Dr.,36.0323668,-78.86587823,http://www.greaterrefugeofdurhamnc.com,"All,Lakewood Middle"
19,19,19,19,19,19,19,19,19,19,19,19,19,19,19,19,19,19,19,19,19,19,19,19,19,19,19,19,19,19,19,Iglesia Presbiteriana Emanuel,Iglesia Presbiteriana Emanuel,2504 N. Roxboro St.,36.02186156,-78.88950585,https://durhamchurchnc.org/emanuel/,"All,Lakewood Middle"
20,20,20,20,20,20,20,20,20,20,20,20,20,20,20,20,20,20,20,20,20,20,20,20,20,20,20,20,20,20,20,Ministerios Guerreros de Jesus Cristo International,Ministerios Guerreros de Jesus Cristo International,1800 N. Roxboro St.,36.01297493,-78.89086967,https://www.guerrerodejesucristo.org,"All,Eastway Elementary,Lakewood Middle"
21,21,21,21,21,21,21,21,21,21,21,21,21,21,21,21,21,21,21,21,21,21,21,21,21,21,21,21,21,21,21,Monument of Faith Church,Monument of Faith Church,900 Simmons St.,35.98174413,-78.8939669,http://www.mof-church.org,"All,Jordan High,Lakewood Middle"
22,22,22,22,22,22,22,22,22,22,22,22,22,22,22,22,22,22,22,22,22,22,22,22,22,22,22,22,22,22,22,Mt. Calvary United Church of Christ,Mt. Calvary United Church of Christ,1715 Athens St.,35.96859356,-78.89090643,https://durham.nc.networkofcare.org/mh/services/agency.aspx?pid=mountcalvaryunitedchurchofchrist_371_2_0,"All,Hillside High,Lakewood Middle,Lowes Grove Middle"
23,23,23,23,23,23,23,23,23,23,23,23,23,23,23,23,23,23,23,23,23,23,23,23,23,23,23,23,23,23,23,"Mt. Level Missionary Baptist (Two Fish, Five Loaves )","Mt. Level Missionary Baptist (Two Fish, Five Loaves )",316 Hebron Rd.,36.05868912,-78.89512841,https://www.freefood.org/l/nc_27704_two-fish-five-loaves,"All,Lakewood Middle,Riverside High"
24,24,24,24,24,24,24,24,24,24,24,24,24,24,24,24,24,24,24,24,24,24,24,24,24,24,24,24,24,24,24,Mt. Zion Christian Church,Mt. Zion Christian Church,3519 Fayetteville St.,35.95631695,-78.90640697,https://mountzionchristianchurch.com,"All,Fayetteville Street Elementary,Hillside High,Lakewood Middle,Lowes Grove Middle"
25,25,25,25,25,25,25,25,25,25,25,25,25,25,25,25,25,25,25,25,25,25,25,25,25,25,25,25,25,25,25,New Home & Durham Baptist Association,New Home & Durham Baptist Association,6611 Guess Rd.,36.12366,-78.942402,https://newhomeanddurhamassociation.com,"All,Lakewood Middle"
26,26,26,26,26,26,26,26,26,26,26,26,26,26,26,26,26,26,26,26,26,26,26,26,26,26,26,26,26,26,26,White Rock Baptist Church,White Rock Baptist Church,3400 Fayetteville St.,35.95838125,-78.91030568,https://www.whiterockbaptistchurch.org,"All,Fayetteville Street Elementary,Hillside High,Lakewood Middle,Lowes Grove Middle"
27,27,27,27,27,27,27,27,27,27,27,27,27,27,27,27,27,27,27,27,27,27,27,27,27,27,27,27,27,27,27,Walltown Ministries (including St. John Missionary Baptist),Walltown Ministries (including St. John Missionary Baptist),Asbury Methodist Church 806 Clarendon St,36.01022626,-78.91801745,http://www.stjohnsdurhamnc.org,"All,Brogden Middle,E.K. Powe Elementary,Lakewood Middle,Riverside High"
28,28,28,28,28,28,28,28,28,28,28,28,28,28,28,28,28,28,28,28,28,28,28,28,28,28,28,28,28,28,28,United for Christ - Child's Cry Pantry,United for Christ - Child's Cry Pantry,4005 Holt School Rd.,36.054891,-78.9069015,,"All,Lakewood Middle,Riverside High"
29,29,29,29,29,29,29,29,29,29,29,29,29,29,29,29,29,29,29,29,29,29,29,29,29,29,29,29,29,29,29,Such A Much Ministries,Such A Much Ministries,"2606 Camellia Dr., Apt. E",36.04669554,-78.93156913,https://m.facebook.com/SuchAMuchMinistries/,"All,Brogden Middle,Hillandale Elementary,Lakewood Middle,Riverside High"
30,30,30,30,30,30,30,30,30,30,30,30,30,30,30,30,30,30,30,30,30,30,30,30,30,30,30,30,30,30,30,St. Joseph AME Church,St. Joseph AME Church,2521 Fayetteville St.,35.96877803,-78.90166901,https://www.stjosephame.org,"All,Fayetteville Street Elementary,Hillside High,Lakewood Middle"
31,31,31,31,31,31,31,31,31,31,31,31,31,31,31,31,31,31,31,31,31,31,31,31,31,31,31,31,31,31,31,Church at the Park,Church at the Park,"228 Page Rd, Suite 108",35.87917071,-78.84656179,https://www.church-at-the-park.org,"All,Hillside High,Lakewood Middle,Lowes Grove Middle"
32,32,32,32,32,32,32,32,32,32,32,32,32,32,32,32,32,32,32,32,32,32,32,32,32,32,32,32,32,32,32,Christian Assembly,Christian Assembly,5516 N. Roxboro St.,36.07759971,-78.91007348,https://www.cadurham.org,"All,Lakewood Middle"
33,33,33,33,33,33,33,33,33,33,33,33,33,33,33,33,33,33,33,33,33,33,33,33,33,33,33,33,33,33,33,Church of Philadelphia,Church of Philadelphia,1309 Jackson St.,35.99545245,-78.92028277,https://www.thechurchofphila.com,"All,Brogden Middle,Jordan High,Lakewood Elementary,Lakewood Middle"
34,34,34,34,34,34,34,34,34,34,34,34,34,34,34,34,34,34,34,34,34,34,34,34,34,34,34,34,34,34,34,Durham Center for Senior Life,Durham Center for Senior Life,406 Rigsbee Ave.,35.9993811,-78.8993685,https://dcslnc.org,"All,Brogden Middle,Lakewood Middle,Riverside High"
35,35,35,35,35,35,35,35,35,35,35,35,35,35,35,35,35,35,35,35,35,35,35,35,35,35,35,35,35,35,35,Durham Spanish SDA Church,Durham Spanish SDA Church,1606 Liberty St.,35.99112553,-78.87415351,https://durhamspanishnc.adventistchurch.org,"All,Lakewood Middle"
36,36,36,36,36,36,36,36,36,36,36,36,36,36,36,36,36,36,36,36,36,36,36,36,36,36,36,36,36,36,36,Emmanuel Tabernacle Holiness,Emmanuel Tabernacle Holiness,2525 Atlantic St.,35.96947398,-78.90345763,https://www.facebook.com/emmanueltabernacle.church,"All,Fayetteville Street Elementary,Hillside High,Lakewood Middle"
37,37,37,37,37,37,37,37,37,37,37,37,37,37,37,37,37,37,37,37,37,37,37,37,37,37,37,37,37,37,37,Feed My Sheep,Feed My Sheep,107 N. Driver St.,35.98638289,-78.87805414,https://www.facebook.com/feedmysheepofdurham/,"All,Lakewood Middle"
38,38,38,38,38,38,38,38,38,38,38,38,38,38,38,38,38,38,38,38,38,38,38,38,38,38,38,38,38,38,38,First Calvary Baptist Church,First Calvary Baptist Church,1311 Morehead Ave.,35.99190843,-78.91929018,https://www.firstcalvary.org/,"All,Brogden Middle,C.C. Spaulding Elementary,Jordan High,Lakewood Middle"
39,39,39,39,39,39,39,39,39,39,39,39,39,39,39,39,39,39,39,39,39,39,39,39,39,39,39,39,39,39,39,Fisher Memorial United Holy Church,Fisher Memorial United Holy Church,420 E. Piedmont Ave.,35.98421452,-78.9006305,https://www.discoverdurham.com/directory/fisher-memorial-united-holy-church-of-america/,"All,Brogden Middle,C.C. Spaulding Elementary,Jordan High,Lakewood Middle"
40,40,40,40,40,40,40,40,40,40,40,40,40,40,40,40,40,40,40,40,40,40,40,40,40,40,40,40,40,40,40,Rougemont Community Food Pantry (Rougemont UMC),Rougemont Community Food Pantry (Rougemont UMC),"105 Red Mountain Rd, Rougemont NC",36.21841198,-78.92608635,https://www.foodpantries.org/li/rougemont-food-pantry,"All,Lakewood Middle"
41,41,41,41,41,41,41,41,41,41,41,41,41,41,41,41,41,41,41,41,41,41,41,41,41,41,41,41,41,41,41,Hope Church International,Hope Church International,1203 Holloway St.,35.99454276,-78.87971423,https://www.facebook.com/HopeChurchInternational/#!/HopeChurchInternational/,"All,Eastway Elementary,Lakewood Middle"
42,42,42,42,42,42,42,42,42,42,42,42,42,42,42,42,42,42,42,42,42,42,42,42,42,42,42,42,42,42,42,Oak Grove Free Will Baptist Church,Oak Grove Free Will Baptist Church,1008 Simmons St.,35.98173653,-78.89256918,https://www.discoverdurham.com/directory/oak-grove-free-will-baptist/,"All,Jordan High,Lakewood Middle"
43,43,43,43,43,43,43,43,43,43,43,43,43,43,43,43,43,43,43,43,43,43,43,43,43,43,43,43,43,43,43,Nehemiah Christian Center,Nehemiah Christian Center,514 North Mangum St.,35.99755884,-78.89782854,https://durham.nc.networkofcare.org/mh/services/agency.aspx?pid=nehemiahchristianchurch_371_2_0,"All,Brogden Middle,Lakewood Middle,Riverside High"
44,44,44,44,44,44,44,44,44,44,44,44,44,44,44,44,44,44,44,44,44,44,44,44,44,44,44,44,44,44,44,Mt Bethel United Methodist Church,Mt Bethel United Methodist Church,"1605 Bahama Rd, Bahama NC",36.16697813,-78.87625665,https://mountbethelumc.com/food-pantry/,"All,Lakewood Middle"
45,45,45,45,45,45,45,45,45,45,45,45,45,45,45,45,45,45,45,45,45,45,45,45,45,45,45,45,45,45,45,Living Waters Christian Community,Living Waters Christian Community,"1104 Lynn Rd, Durham",35.97225798,-78.84809733,https://lwccnc.com/,"All,Lakewood Middle"
46,46,46,46,46,46,46,46,46,46,46,46,46,46,46,46,46,46,46,46,46,46,46,46,46,46,46,46,46,46,46,Obedience to the Word Church,Obedience to the Word Church,"644 Bon Air Ave, Durham",36.03082923,-78.88294864,https://www.obediencetotheword.org/,"All,Lakewood Middle"
47,47,47,47,47,47,47,47,47,47,47,47,47,47,47,47,47,47,47,47,47,47,47,47,47,47,47,47,47,47,47,"Seed Time & Harvest Fellowship, Inc","Seed Time & Harvest Fellowship, Inc","804 Berwyn Ave, Durham",36.03367444,-78.8803844,https://www.facebook.com/STHFInc/,"All,Lakewood Middle"
48,48,48,48,48,48,48,48,48,48,48,48,48,48,48,48,48,48,48,48,48,48,48,48,48,48,48,48,48,48,48,Project of Hope Pantry @ World Overcomer's Church,Project of Hope Pantry @ World Overcomer's Church,"2933 S. Miami Blvd, Durham NC",35.92625787,-78.8455845,https://www.worldovercomers.church/,"All,Hillside High,Lakewood Middle,Lowes Grove Middle"
49,49,49,49,49,49,49,49,49,49,49,49,49,49,49,49,49,49,49,49,49,49,49,49,49,49,49,49,49,49,49,DCSL-  Food for Kitchen-less Seniors,DCSL-  Food for Kitchen-less Seniors,406 Rigsbee Ave,35.99939847,-78.8993685,http://www.dcslnc.org/,"All,Brogden Middle,Lakewood Middle,Riverside High"
50,50,50,50,50,50,50,50,50,50,50,50,50,50,50,50,50,50,50,50,50,50,50,50,50,50,50,50,50,50,50,Mt. Level Missionary Baptist TEFAP and UCAN,Mt. Level Missionary Baptist TEFAP and UCAN,"317 Hebron Rd, Durham NC",36.05930711,-78.89622474,https://mtlevelmbc.org/,"All,Lakewood Middle"
51,51,51,51,51,51,51,51,51,51,51,51,51,51,51,51,51,51,51,51,51,51,51,51,51,51,51,51,51,51,51,Antioch Baptist Church,Antioch Baptist Church,1415 Holloway St.,35.994816,-78.875388,https://antiochdurham.org/,"All,Eastway Elementary,Lakewood Middle"
52,52,52,52,52,52,52,52,52,52,52,52,52,52,52,52,52,52,52,52,52,52,52,52,52,52,52,52,52,52,52,Word Empowerment Church (for Seniors only),Word Empowerment Church (for Seniors only),2403 Lednum St.,36.02802211,-78.91030079,http://wordempowermentchurch.com/,"All,Brogden Middle,Lakewood Middle,Riverside High"
53,53,53,53,53,53,53,53,53,53,53,53,53,53,53,53,53,53,53,53,53,53,53,53,53,53,53,53,53,53,53,Grace Outreach - Love & Respect,Grace Outreach - Love & Respect,1607 Angier Ave.,35.98441541,-78.88362146,https://goemdaily.com/,"All,Lakewood Middle"
54,54,54,54,54,54,54,54,54,54,54,54,54,54,54,54,54,54,54,54,54,54,54,54,54,54,54,54,54,54,54,United Church of Christ,United Church of Christ,"4823 Meadow Dr, Suite 106",35.89860432,-78.89447446,https://durham.nc.networkofcare.org/mh/services/agency.aspx?pid=mountcalvaryunitedchurchofchrist_371_2_0,"All,Hillside High,Lakewood Middle,Lowes Grove Middle,Parkwood Elementary"
55,55,55,55,55,55,55,55,55,55,55,55,55,55,55,55,55,55,55,55,55,55,55,55,55,55,55,55,55,55,55,Parktown Food Hub,Parktown Food Hub,5123 Revere Road,35.89434686,-78.90912129,https://soduco.org/parktown-food-hub,"All,Hillside High,Lakewood Middle,Lowes Grove Middle,Parkwood Elementary"
56,56,56,56,56,56,56,56,56,56,56,56,56,56,56,56,56,56,56,56,56,56,56,56,56,56,56,56,56,56,56,Southside Church of Christ,Southside Church of Christ,800 Elmira Ave.,35.9627365,-78.90115873,https://www.sscofc.org/pantry/,"All,Fayetteville Street Elementary,Hillside High,Lakewood Middle"
57,57,57,57,57,57,57,57,57,57,57,57,57,57,57,57,57,57,57,57,57,57,57,57,57,57,57,57,57,57,57,Urban Ministries of Durham,Urban Ministries of Durham,410 Liberty St.,35.99344322,-78.89600075,https://umdurham.org/,"All,Brogden Middle,Eastway Elementary,Lakewood Middle,Riverside High"
58,58,58,58,58,58,58,58,58,58,58,58,58,58,58,58,58,58,58,58,58,58,58,58,58,58,58,58,58,58,58,Hannah's Community Kitchen @ Greater Orange Grove Baptist,Hannah's Community Kitchen @ Greater Orange Grove Baptist,5524 N. Roxboro St.,36.07093923,-78.90828439,https://www.ogmbc.org/,"All,Lakewood Middle"
59,59,59,59,59,59,59,59,59,59,59,59,59,59,59,59,59,59,59,59,59,59,59,59,59,59,59,59,59,59,59,Root Causes Duke (for Duke Clinic patients only),Root Causes Duke (for Duke Clinic patients only),4220 N. Roxboro Rd.,36.04822619,-78.90324366,https://durham.nc.networkofcare.org/mh/services/agency.aspx?pid=RootCauses_371_2_0,"All,Lakewood Middle,Riverside High"
60,60,60,60,60,60,60,60,60,60,60,60,60,60,60,60,60,60,60,60,60,60,60,60,60,60,60,60,60,60,60,Fed Up Produce Distribution,Fed Up Produce Distribution,"2000 Chapel Hill Rd, Durham NC",35.98805126,-78.92792834,https://twitter.com/fedupinthesouth,"All,Brogden Middle,Jordan High,Lakewood Elementary,Lakewood Middle"
61,61,61,61,61,61,61,61,61,61,61,61,61,61,61,61,61,61,61,61,61,61,61,61,61,61,61,61,61,61,61,Durham Neighborhood Food Pantry (ICNA relief),Durham Neighborhood Food Pantry (ICNA relief),3034 Fayetteville St,35.96288434,-78.90855798,https://icnarelief.org/north-carolina/,"All,Fayetteville Street Elementary,Hillside High,Lakewood Middle,Lowes Grove Middle"
62,62,62,62,62,62,62,62,62,62,62,62,62,62,62,62,62,62,62,62,62,62,62,62,62,62,62,62,62,62,62,House of Mercy/ Celebracion Cristiana,House of Mercy/ Celebracion Cristiana,1305 Odyssey Drive,35.93047183,-78.89218307,https://celebracioncristiana.org/,"All,Hillside High,Lakewood Middle,Lowes Grove Middle,Parkwood Elementary"
